THAICOM 8               
1 41552U 16031A   26115.79655234 -.00000135  00000+0  00000+0 0  9992
2 41552   0.0635  41.7703 0004209 345.4348 191.8986  1.00271789 36197
INTELSAT 31 (IS-31)     
1 41581U 16035A   26115.12049376 -.00000165  00000+0  00000+0 0  9992
2 41581   0.0102 233.3487 0002248  37.9364 250.1882  1.00271589 36156
BEIDOU-2 G7             
1 41586U 16037A   26115.80287904 -.00000365  00000+0  00000+0 0  9997
2 41586   1.5926  68.7994 0007663 354.2969 190.2079  1.00265679  6361
ABS-2A (MONGOLSAT-1)    
1 41588U 16038A   26115.51059229  .00000000  00000+0  00000+0 0  9990
2 41588   0.0141 239.6549 0002213  97.7673 134.6243  1.00271180 36180
EUTELSAT 117 WEST B     
1 41589U 16038B   26115.68654649 -.00000026  00000+0  00000+0 0  9995
2 41589   0.0104  97.9928 0000021 322.0419 283.8316  1.00271513 36136
BRISAT                  
1 41591U 16039A   26114.84677137 -.00000211  00000+0  00000+0 0  9999
2 41591   0.0166 256.1489 0002106 127.9652 284.0915  1.00272013 36072
ECHOSTAR 18             
1 41592U 16039B   26115.87336475 -.00000296  00000+0  00000+0 0  9994
2 41592   0.0144 203.2223 0001511 194.5044  69.1828  1.00270316 36105
MUOS-5                  
1 41622U 16041A   26115.60066689 -.00000171  00000+0  00000+0 0  9991
2 41622   2.3170 300.7212 0194771 261.7310 122.5153  1.00270619 36569
TIANTONG-1 1            
1 41725U 16048A   26115.72979334 -.00000328  00000+0  00000+0 0  9999
2 41725   3.7515  42.9578 0006441  20.2339 154.6450  1.00269141 35749
JCSAT-16                
1 41729U 16050A   26115.35461183 -.00000265  00000+0  00000+0 0  9993
2 41729   0.0156 206.9430 0001109 200.2971  77.7360  1.00270558 35548
USA 270                 
1 41744U 16052A   26111.25336792  .00000060  00000+0  00000+0 0  9996
2 41744   4.0526  77.8945 0003438 320.1673  82.4480  1.00347865 27569
USA 271                 
1 41745U 16052B   26110.88563977 -.00000360  00000+0  00000+0 0  9996
2 41745   4.0240  77.9674 0007317 143.7849  69.2738  1.00241576 27344
INTELSAT 36 (IS-36)     
1 41747U 16053A   26115.20878034 -.00000038  00000+0  00000+0 0  9995
2 41747   0.0144 331.2817 0001681 357.9480  27.6553  1.00270344 35424
INSAT-3DR               
1 41752U 16054A   26115.79559899 -.00000090  00000+0  00000+0 0  9999
2 41752   0.1123  86.1637 0011677 195.1508 292.8983  1.00271286 35297
GSAT-18                 
1 41793U 16060A   26115.79568566 -.00000091  00000+0  00000+0 0  9993
2 41793   0.0634  82.2906 0005009 335.1437 156.8281  1.00271271 35006
SKY MUSTER 2 (NBN1B)    
1 41794U 16060B   26115.80690199 -.00000258  00000+0  00000+0 0  9999
2 41794   0.0168 257.8443 0001647 128.3696 262.8823  1.00272139 34999
HIMAWARI-9              
1 41836U 16064A   26115.73753208 -.00000288  00000+0  00000+0 0  9996
2 41836   0.0343 133.3596 0000767 271.8055 214.8570  1.00272703 34682
